GLOBALSTAR M035         
1 25851U 99037A   24293.84263654 -.00000025  00000+0  14525-2 0  9993
2 25851  51.9940 230.9547 0013749 315.9040  85.5283 11.04534088 69715
GLOBALSTAR M032         
1 25852U 99037B   24293.78318095 -.00000077  00000+0 -32535-3 0  9997
2 25852  51.9952  72.8646 0011528 122.4067 237.7849 11.19063889107876
GLOBALSTAR M051         
1 25853U 99037C   24293.91947651 -.00000092  00000+0 -49401-3 0  9996
2 25853  51.9788 260.5068 0001174 121.7725 238.3200 11.42200223104930
GLOBALSTAR M030         
1 25854U 99037D   24293.86317277 -.00000073  00000+0  41090-4 0  9991
2 25854  51.9871  82.0250 0003376 348.6691  11.4049 11.55103117122278
GLOBALSTAR M048         
1 25872U 99041A   24293.89227909 -.00000024  00000+0  12430-2 0  9991
2 25872  51.9351 186.3164 0013703 124.7291 316.9770 11.33850721 97605
GLOBALSTAR M026         
1 25873U 99041B   24293.48001910 -.00000116  00000+0 -19004-2 0  9996
2 25873  52.0050 352.2529 0001426 193.1198 268.2642 11.06829890121831
GLOBALSTAR M043         
1 25874U 99041C   24293.47724810 -.00000022  00000+0  13587-2 0  9992
2 25874  51.9403 285.3536 0012868 262.7367 272.0729 11.25683869 95765
GLOBALSTAR M028         
1 25875U 99041D   24293.89957445 -.00000034  00000+0  42268-3 0  9993
2 25875  51.9617 189.5528 0062671 269.9466  89.4213 12.50567371160113
